{
  "type": "FeatureCollection",
  "features": [
    {
      "type": "Feature",
      "properties": {},
      "geometry": {
        "coordinates": [
          [
            [
              19.78856143321198,
              42.49093024782621
            ],
            [
              19.76821127716505,
              42.47623264447603
            ],
            [
              19.74635981660262,
              42.43629453510252
            ],
            [
              19.77486056103365,
              42.43414119905705
            ],
            [
              19.781764291169395,
              42.45363380354735
            ],
            [
              19.792960580161576,
              42.46738908967157
            ],
            [
              19.82005428967642,
              42.483247855738114
            ],
            [
              19.842195068602678,
              42.49796816489908
            ],
            [
              19.850570510235173,
              42.50666203555312
            ],
            [
              19.843230394588858,
              42.51348210357469
            ],
            [
              19.83747284871447,
              42.513863444205185
            ],
            [
              19.8244560824796,
              42.51064381373692
            ],
            [
              19.810372850602192,
              42.50433287434572
            ],
            [
              19.798577840505857,
              42.49656465181343
            ],
            [
              19.78856143321198,
              42.49093024782621
            ]
          ]
        ],
        "type": "Polygon"
      }
    },
    {
      "type": "Feature",
      "properties": {},
      "geometry": {
        "coordinates": [
          [
            [
              19.890340990125537,
              42.447727691021896
            ],
            [
              19.917624236703034,
              42.451517048584094
            ],
            [
              19.917337290677295,
              42.45251356951843
            ],
            [
              19.95480359043134,
              42.44560173710613
            ],
            [
              19.975115099300808,
              42.47203172356316
            ],
            [
              19.971774008365372,
              42.498524252660104
            ],
            [
              19.94895754562117,
              42.50285001416157
            ],
            [
              19.924339315251416,
              42.50142120321803
            ],
            [
              19.89479495398632,
              42.49228087239396
            ],
            [
              19.867717411236782,
              42.488788316387
            ],
            [
              19.865480844331444,
              42.4780047159785
            ],
            [
              19.87091222731081,
              42.45299092030373
            ],
            [
              19.890340990125537,
              42.447727691021896
            ]
          ]
        ],
        "type": "Polygon"
      }
    }
  ]
}